SAVED_AT,EPOCH,OBJECT_NAME,OBJECT_ID,MEAN_MOTION,ECCENTRICITY,INCLINATION,RA_OF_ASC_NODE,ARG_OF_PERICENTER,MEAN_ANOMALY,EPHEMERIS_TYPE,CLASSIFICATION_TYPE,NORAD_CAT_ID,ELEMENT_SET_NO,REV_AT_EPOCH,BSTAR,MEAN_MOTION_DOT,MEAN_MOTION_DDOT
2026-07-04T17:00:20.311926,2026-07-03T23:17:27.197952,OBJECT A,2026-152A,15.63686476,0.00228241,20.5967,53.6074,194.7517,165.2263,0.0,U,69792.0,999.0,9.0,0.00016303419,0.00017031,0.0
